COSMOS 2433 (720)       
1 32275U 07052A   25134.98480298 -.00000037  00000+0  00000+0 0  9995
2 32275  65.7923 329.3046 0000962 202.4911 157.5279  2.13104179136572
COSMOS 2432 (719)       
1 32276U 07052B   25135.30444887 -.00000036  00000+0  00000+0 0  9996
2 32276  65.8074 329.4140 0008932 337.5836 212.8652  2.13103290136605
COSMOS 2434 (721)       
1 32393U 07065A   25134.23455105  .00000054  00000+0  00000+0 0  9995
2 32393  64.3140 205.3765 0001029  53.3460 342.6023  2.13101452135278
COSMOS 2436 (723)       
1 32395U 07065C   25135.42822461  .00000051  00000+0  00000+0 0  9999
2 32395  64.3226 205.4042 0016591 357.0119   8.6813  2.13100322135258
COSMOS 2456 (730)       
1 36111U 09070A   25135.53804535  .00000012  00000+0  00000+0 0  9998
2 36111  64.7817  84.5616 0005810 316.5420 155.1070  2.13103740119957
COSMOS 2457 (733)       
1 36112U 09070B   25135.36436549  .00000010  00000+0  00000+0 0  9994
2 36112  64.7665  84.4194 0001865 168.0182 301.4724  2.13101213119955
COSMOS 2460 (732)       
1 36402U 10007C   25132.83197581 -.00000044  00000+0  00000+0 0  9995
2 36402  65.6433 327.9833 0002232  69.4679 253.5949  2.13106346118192
COSMOS 2476 (744)       
1 37867U 11064A   25135.09375317  .00000012  00000+0  00000+0 0  9995
2 37867  65.0477  86.3341 0023542 241.4755 159.4516  2.13101577105285
COSMOS 2477 (745)       
1 37868U 11064B   25135.49393638  .00000015  00000+0  00000+0 0  9999
2 37868  65.0547  86.3962 0020713 243.0963 284.6469  2.13103064105280
COSMOS 2475 (743)       
1 37869U 11064C   25135.32733172  .00000014  00000+0  00000+0 0  9992
2 37869  65.0615  86.4199 0026335 255.9186 100.8950  2.13101871105283
COSMOS 2485 (747)       
1 39155U 13019A   25135.44899171  .00000016  00000+0  00000+0 0  9991
2 39155  65.2022  86.9748 0023820 237.2856 122.4593  2.13104585 93807
COSMOS 2492 (754)       
1 39620U 14012A   25133.99831591 -.00000041  00000+0  00000+0 0  9991
2 39620  65.5223 327.4729 0011618 330.1915  29.7643  2.13103330 86739
COSMOS 2500 (755)       
1 40001U 14032A   25135.11179770 -.00000036  00000+0  00000+0 0  9992
2 40001  65.4580 327.2142 0005729 183.6177 176.3978  2.13106051 84970
COSMOS 2501 (702K)      
1 40315U 14075A   25134.89957291  .00000053  00000+0  00000+0 0  9991
2 40315  63.6140 204.1633 0021254 209.9968 149.9645  2.13101469 81364
COSMOS 2514 (751)       
1 41330U 16008A   25134.41384443 -.00000039  00000+0  00000+0 0  9993
2 41330  65.2503 326.6633 0009295 199.8887 160.0947  2.13102745 72122
COSMOS 2522 (752)       
1 42939U 17055A   25133.78360791  .00000054  00000+0  00000+0 0  9997
2 42939  64.0755 205.4827 0009466 237.9935 121.9951  2.13101898 59462
COSMOS 2527 (756)       
1 43508U 18053A   25135.15128101  .00000014  00000+0  00000+0 0  9995
2 43508  65.3609  87.2059 0008468 245.7721 114.1126  2.13102240 53791
COSMOS 2529 (757)       
1 43687U 18086A   25135.24950527  .00000051  00000+0  00000+0 0  9995
2 43687  64.2914 206.0350 0010677 257.2904 102.6722  2.13102084 50806
COSMOS 2534 (758)       
1 44299U 19030A   25133.86940828  .00000053  00000+0  00000+0 0  9996
2 44299  64.3646 206.0662 0012267 278.3942 237.1304  2.13102492 46413
COSMOS 2544 (759)       
1 44850U 19088A   25134.15711351  .00000005  00000+0  00000+0 0  9999
2 44850  65.3476  87.0699 0014499 262.2387  97.5665  2.13102067 42219
COSMOS 2545 (760)       
1 45358U 20018A   25133.88446458 -.00000043  00000+0  00000+0 0  9993
2 45358  64.5883 326.4219 0007188 240.0287 119.9199  2.13102649 40152
COSMOS 2547 (705K)      
1 46805U 20075A   25135.47834005  .00000050  00000+0  00000+0 0  9997
2 46805  64.5948 205.7523 0008343 238.6405 121.3600  2.13100427 35439
COSMOS 2557 (706K)      
1 52984U 22075A   25134.70667547 -.00000041  00000+0  00000+0 0  9995
2 52984  64.5234 328.4931 0010515 282.1284  77.7754  2.13102171 22226
COSMOS 2559 (707K)      
1 54031U 22130A   25134.99457808 -.00000040  00000+0  00000+0 0  9999
2 54031  64.4959 328.5796 0011189 175.9208 184.1098  2.13101545 20201
COSMOS 2564 (761)       
1 54377U 22161A   25135.30888209  .00000051  00000+0  00000+0 0  9996
2 54377  64.7365 205.9225 0010927 221.1570 138.8425  2.13102065 19158
COSMOS 2569 (703K)      
1 57517U 23114A   25135.32351706  .00000013  00000+0  00000+0 0  9991
2 57517  65.0797  86.0607 0012228 296.6687  63.1805  2.13103805 13782
COSMOS 2584 (704K)      
1 63130U 25042A   25132.86373345 -.00000006  00000+0  00000+0 0  9993
2 63130  64.8600  86.4348 0007018 234.9171 124.9845  2.13103786  1516
